FENGYUN 3B              
1 37214U 10059A   22020.77116499 -.00000046  00000-0  58532-8 0  9994
2 37214  99.0900  24.1325 0023118  53.1039 307.2251 14.14241278580084
